{
  "norad_id": 63499,
  "name": "STARLINK-33534",
  "history": [
    {
      "epoch": "2026-03-28T22:09:48.980448Z",
      "apogee_km": 476.16562975553916,
      "perigee_km": 474.1473348250056,
      "latitude_deg": -2.656809515648694e-05,
      "longitude_deg": -108.13556787277433,
      "height_km": 475.4026208090552,
      "semi_major_axis_km": 6853.293482290273,
      "eccentricity": 0.00014725,
      "inclination_deg": 53.1582,
      "raan_deg": 50.6555,
      "arg_perigee_deg": 49.7551,
      "mean_anomaly_deg": 310.3578,
      "mean_motion_rev_day": 15.30219622
    },
    {
      "epoch": "2026-03-29T04:26:01.749408Z",
      "apogee_km": 476.06447898272927,
      "perigee_km": 474.3566247728022,
      "latitude_deg": 3.30593955532533e-05,
      "longitude_deg": 156.34156409631657,
      "height_km": 475.9387556848699,
      "semi_major_axis_km": 6853.347551877766,
      "eccentricity": 0.0001246,
      "inclination_deg": 53.1587,
      "raan_deg": 49.4433,
      "arg_perigee_deg": 78.5307,
      "mean_anomaly_deg": 281.5834,
      "mean_motion_rev_day": 15.30201513
    },
    {
      "epoch": "2026-03-30T03:56:49.833024Z",
      "apogee_km": 476.0468319135807,
      "perigee_km": 474.3896906114069,
      "latitude_deg": 2.3148517824398252e-05,
      "longitude_deg": 158.12454967518553,
      "height_km": 476.0445858333067,
      "semi_major_axis_km": 6853.3552612624935,
      "eccentricity": 0.0001209,
      "inclination_deg": 53.1593,
      "raan_deg": 44.8923,
      "arg_perigee_deg": 85.0314,
      "mean_anomaly_deg": 275.0825,
      "mean_motion_rev_day": 15.30198931
    }
  ]
}